0029P         2019 03 18.5077  5.767784  0.044298   48.5638  312.3750    9.3668  20201112   3.4  4.0  29P/Schwassmann-Wachmann                                 MPEC 2020-U96
0030P         2017 08 27.3052  1.712355  0.533709   11.0887  118.9352    8.6096  20201112   9.5  6.0  30P/Reinmuth                                             MPC110085
0031P         2019 07  5.3626  3.424876  0.192324   18.2293  114.1138    4.5473  20201112   5.3  8.0  31P/Schwassmann-Wachmann                                 MPC108597
0032P         2024 04 26.1724  1.984302  0.558678   53.5927   57.2636    9.9136  20201112   6.5  8.0  32P/Comas Sola                                           MPC 92276
0033P         2024 11 12.9129  2.237306  0.452120   20.6000   66.3431   22.3160  20201112  10.0 12.0  33P/Daniel                                               MPEC 2013-O31
0035P         2091 12 25.3920  0.754010  0.973600   29.0350  356.4840   64.8810  20201112   9.0  4.0  35P/Herschel-Rigollet                                    15,  452
0036P         2020 05 31.7465  3.021691  0.268626  200.7963  181.8605    9.9520  20201112   8.5  6.0  36P/Whipple                                              MPEC 2020-SI8
0037P         2018 05  4.2901  1.612075  0.534031  330.0976  314.5605    8.9574  20201112   5.7 11.9  37P/Forbes                                               MPEC 2018-HA5
0038P         2018 11 10.9016  1.586936  0.858930  359.5310   77.9863   18.3561  20201112   8.3  4.8  38P/Stephan-Oterma                                       MPEC 2018-S50
0039P         2023 05 15.9162  5.743140  0.224071   95.2785  299.2521    1.5610  20201112   7.0  6.0  39P/Oterma                                               MPEC 2020-UR0
0040P         2025 11 18.4711  1.832777  0.629831   47.4534  133.7805   11.4696  20201112   5.5 12.0  40P/Vaisala                                              MPC100283
0041P         2022 09 13.3810  1.048864  0.660165   62.2597  140.9929    9.2209  20201112  10.0 12.1  41P/Tuttle-Giacobini-Kresak                              MPC105240
0042P         2026 01 12.2815  2.020160  0.585437  147.1878  150.1859    3.9898  20201112  13.0  6.0  42P/Neujmin                                              MPC 94283
0043P         2016 08 25.4328  2.423902  0.437577  224.0956  244.3178    9.3662  20201112   6.3  6.0  43P/Wolf-Harrington                                      MPC102956
0044P         2022 04 23.5431  2.112781  0.427212   58.1389  286.4802    5.8984  20201112   8.3  6.0  44P/Reinmuth                                             MPEC 2020-HN5
0045P         2022 04 25.5977  0.556523  0.817567  327.9446   87.7039    4.3245  20201112   8.9  8.0  45P/Honda-Mrkos-Pajdusakova                              MPC103849
0046P         2018 12 12.6464  1.056513  0.658270  356.3586   82.1571   11.7436  20201112   9.8  6.0  46P/Wirtanen                                             MPC114607
0047P         2017 06 10.7764  2.812889  0.318059  357.6110  356.9240   13.0361  20201112   9.1  4.0  47P/Ashbrook-Jackson                                     NK   2718
0048P         2018 08 12.5639  2.004546  0.427376  216.6300  110.1265   12.2077  20201112   9.7  4.0  48P/Johnson                                              MPEC 2015-M77
0049P         2018 07 14.8124  1.433581  0.598432  332.9702  118.7960   19.0463  20201112  11.1  4.4  49P/Arend-Rigaux                                         MPEC 2020-K19
0050P         2024 05 13.9555  1.927284  0.528693   49.3293  355.1638   19.0987  20201112   9.5  6.0  50P/Arend                                                MPEC 2015-S97
0051P         2022 10  5.1693  1.694518  0.543122  269.2062   83.7755    5.4336  20200926  11.0  8.0  51P/Harrington                                           215,  381
0051P      a  2022 10  1.9150  1.693991  0.543137  269.2579   83.6686    5.4258  20201112  16.0  8.0  51P-A/Harrington                                         NK   3013
0051P      d  2022 10  1.9135  1.693990  0.543137  269.2576   83.6689    5.4258  20201112  16.0  8.0  51P-D/Harrington                                         NK   3013
0052P         2021 10  5.2261  1.777306  0.539874  139.6001  336.8390   10.2317  20201112  13.5  6.0  52P/Harrington-Abell                                     MPC 88330
0053P         2016 04 30.9774  2.429932  0.552140  134.4327  148.8255    6.6086  20201112   7.8  4.5  53P/Van Biesbroeck                                       MPC100283
0054P         2017 04 16.2199  2.178329  0.425637    1.7664  358.8139    6.0626  20201112   9.0  4.0  54P/de Vico-Swift-NEAT                                   MPC 89011
0055P         2031 05 17.8001  0.967848  0.906496  172.5261  235.4047  162.3982  20201112   9.0  4.0  55P/Tempel-Tuttle                                        MPC 31070
0056P         2016 07 18.6780  2.499706  0.507063   44.0016  345.9863    8.1591  20201112   7.0  6.0  56P/Slaughter-Burnham                                    MPC101100
0057P         2021 10 17.4309  1.720441  0.500798  115.2435  188.7774    2.8507  20201112  12.5  6.0  57P/du Toit-Neujmin-Delporte                             MPC 98565
0058P         2020 05 27.4246  1.377393  0.662420  200.4402  159.0794   13.1098  20201112   3.8 15.4  58P/Jackson-Neujmin                                      MPEC 2020-SI8
0059P         2018 09 16.4643  2.356883  0.474893  127.5882  312.8340    9.3415  20201112   9.7  6.0  59P/Kearns-Kwee                                          MPC111774
0060P         2018 12 10.8333  1.632216  0.536290  216.8560  267.5847    3.5991  20201112  11.5  4.0  60P/Tsuchinshan                                          MPEC 2015-M77
0061P         2022 10 24.5001  2.123349  0.423842  221.8751  162.9838    5.9988  20201112   6.0 10.0  61P/Shajn-Schaldach                                      MPEC 2015-Q71
0062P         2017 11 14.9474  1.210731  0.637120   45.2447   71.4771    4.9103  20201112   9.5  8.2  62P/Tsuchinshan                                          MPC109147
0063P         2026 07 13.8774  1.967957  0.648921  169.1314  358.0182   19.7328  20201112  10.5  6.0  63P/Wild                                                 MPC 84320
0064P         2018 11  4.0009  1.391106  0.687708   97.0835  300.0014    8.9504  20201112   3.3 12.0  64P/Swift-Gehrels                                        MPC111774
0065P         2017 10 17.8035  2.914786  0.249709  213.8297   62.0231    9.1815  20201112   6.9  6.0  65P/Gunn                                                 MPC104795
0066P         2018 05 19.1911  1.292371  0.786890  257.3304   21.8560   18.6562  20201112   8.3 11.1  66P/du Toit                                              MPC109147
0067P         2021 11  1.8594  1.208857  0.650526   22.0316   36.4641    3.8725  20201112  11.0  4.0  67P/Churyumov-Gerasimenko                                MPC 89011
0068P         2019 11  9.0909  1.794277  0.637605  153.0962  175.0743   11.1101  20201112   7.3  8.1  68P/Klemola                                              MPC 75716
0069P         2019 03 18.2096  2.282424  0.413048  343.4859  104.8292   22.0332  20201112   9.5 12.0  69P/Taylor                                               MPC114607
0069P      a  2018 06 11.5119  1.910533  0.490668  342.9721  104.5044   17.5285  20200926   9.5 12.0  69P-A/Taylor                                             KK 167
0069P      b  2019 04  4.8516  2.303414  0.408412  343.9222  104.8256   22.2618  20200926  11.0  6.0  69P-B/Taylor                                             26,  166
0070P         2021 11  3.1901  2.008941  0.453482    1.8514  119.2679    6.5982  20201112  11.0  6.0  70P/Kojima                                               MPC 92276
0071P         2023 01 21.3461  1.587682  0.494095  209.0301   59.4297    9.4397  20201112   7.5  8.1  71P/Clark                                                MPC107051
0072P         2023 06 16.1593  0.783820  0.818197  346.6769   26.6895   10.9355  20201112  17.5 10.0  72P/Denning-Fujikawa                                     MPC 89011
0073P         2022 08 25.5328  0.972362  0.685632  199.4521   69.6423   11.2318  20201112  11.2  4.8  73P/Schwassmann-Wachmann                                 MPC106348
0073P      t  2022 08 27.0319  0.972225  0.685835  199.4335   69.6449   11.2339  20201112  11.5  6.0  73P-T/Schwassmann-Wachmann                               MPC106348
0073P     bt  2022 08 26.9991  0.972140  0.685862  199.4304   69.6474   11.2346  20200926  11.5  6.0  73P-BT/Schwassmann-Wachmann                              MPC106348
0074P         2018 03 15.1698  3.590649  0.153747   95.1403   76.2807    6.4893  20201112   4.7  6.3  74P/Smirnova-Chernykh                                    MPEC 2020-M07
0076P         2019 10 26.0912  1.604418  0.538109  359.9915   84.1208   30.4574  20201112   8.8 12.0  76P/West-Kohoutek-Ikemura                                MPEC 2020-SI8
0077P         2023 04  3.2654  2.345515  0.352248  196.8581   14.7918   24.3220  20201112   7.0  8.0  77P/Longmore                                             MPC100283
0078P         2019 04  2.6558  2.013236  0.461734  192.6611  210.5359    6.2488  20200531   7.0  6.2  78P/Gehrels                                              MPEC 2020-SI8
0079P         2018 09 13.0287  1.121426  0.618924  281.8147  280.5282    3.1480  20201112  16.0  4.0  79P/du Toit-Hartley                                      MPC 94675
0079P      a  2018 09 12.9961  1.121352  0.618950  281.8089  280.5221    3.1476  20200926  16.0  4.0  79P-A/du Toit-Hartley                                    NK    706
0079P      b  2018 09 15.5102  1.120222  0.619314  282.9423  279.4222    3.1720  20200926  16.0  4.0  79P-B/du Toit-Hartley                                    NK    706
0080P         2022 12  8.6729  1.613866  0.598973  339.2530  259.8208   29.9381  20201112   9.0  4.0  80P/Peters-Hartley                                       MPEC 2014-P41
